{"type": "FeatureCollection", "features": [ {"type": "Feature", "properties": {"norad_id": 40792, "name": "COSMOS 2251 DEB", "group": "cosmos-2251-debris", "lat": 51.10451164170813, "lon": -136.33402390919701, "alt_km": 655.8989069917634, "timestamp": "2025-12-03T22:42:33.030801+00:00", "meta": {"OBJECT_NAME": "COSMOS 2251 DEB", "OBJECT_ID": "1993-036BVV", "EPOCH": "2025-11-22T08:06:07.865856", "MEAN_MOTION": 14.67201811, "ECCENTRICITY": 0.00172349, "INCLINATION": 74.0441, "RA_OF_ASC_NODE": 86.8266, "ARG_OF_PERICENTER": 197.5934, "MEAN_ANOMALY": 193.5273, "EPHEMERIS_TYPE": 0, "CLASSIFICATION_TYPE": "U", "NORAD_CAT_ID": 40792, "ELEMENT_SET_NO": 999, "REV_AT_EPOCH": 62885, "BSTAR": 0.00160322, "MEAN_MOTION_DOT": 9.026e-05, "MEAN_MOTION_DDOT": 0}, "tle": {"line1": "1 40792U 93036BVV 25326.33759104  .00009026  00000+0  16032-2 0  9993", "line2": "2 40792  74.0441  86.8266 0017234 197.5934 193.5273 14.67201811628855"}}, "geometry": {"type": "Point", "coordinates": [-136.33402390919701, 51.10451164170813]}}, {"type": "Feature", "properties": {"norad_id": 40793, "name": "COSMOS 2251 DEB", "group": "cosmos-2251-debris", "lat": -50.39681455525446, "lon": 20.868145923963695, "alt_km": 918.808694388812, "timestamp": "2025-12-03T22:42:33.030810+00:00", "meta": {"OBJECT_NAME": "COSMOS 2251 DEB", "OBJECT_ID": "1993-036BVW", "EPOCH": "2025-11-17T22:59:08.433600", "MEAN_MOTION": 14.0559149, "ECCENTRICITY": 0.02150611, "INCLINATION": 73.9793, "RA_OF_ASC_NODE": 208.5839, "ARG_OF_PERICENTER": 10.058, "MEAN_ANOMALY": 350.4754, "EPHEMERIS_TYPE": 0, "CLASSIFICATION_TYPE": "U", "NORAD_CAT_ID": 40793, "ELEMENT_SET_NO": 999, "REV_AT_EPOCH": 67897, "BSTAR": 0.0015211732, "MEAN_MOTION_DOT": 3.024e-05, "MEAN_MOTION_DDOT": 0}, "tle": {"line1": "1 40793U 93036BVW 25321.95773650  .00003024  00000+0  15212-2 0  9990", "line2": "2 40793  73.9793 208.5839 0215061  10.0580 350.4754 14.05591490678970"}}, "geometry": {"type": "Point", "coordinates": [20.868145923963695, -50.39681455525446]}}, {"type": "Feature", "properties": {"norad_id": 40794, "name": "COSMOS 2251 DEB", "group": "cosmos-2251-debris", "lat": 72.87852158903681, "lon": -106.9361144150213, "alt_km": 592.332390625379, "timestamp": "2025-12-03T22:42:33.030819+00:00", "meta": {"OBJECT_NAME": "COSMOS 2251 DEB", "OBJECT_ID": "1993-036BVX", "EPOCH": "2025-11-30T04:39:36.279360", "MEAN_MOTION": 14.91253423, "ECCENTRICITY": 0.00103638, "INCLINATION": 73.9758, "RA_OF_ASC_NODE": 149.5129, "ARG_OF_PERICENTER": 264.0956, "MEAN_ANOMALY": 215.1976, "EPHEMERIS_TYPE": 0, "CLASSIFICATION_TYPE": "U", "NORAD_CAT_ID": 40794, "ELEMENT_SET_NO": 999, "REV_AT_EPOCH": 61737, "BSTAR": 0.0047311798, "MEAN_MOTION_DOT": 0.00047418, "MEAN_MOTION_DDOT": 0}, "tle": {"line1": "1 40794U 93036BVX 25334.19416990  .00047418  00000+0  47312-2 0  9993", "line2": "2 40794  73.9758 149.5129 0010363 264.0956 215.1976 14.91253423617370"}}, "geometry": {"type": "Point", "coordinates": [-106.9361144150213, 72.87852158903681]}}, {"type": "Feature", "properties": {"norad_id": 40796, "name": "COSMOS 2251 DEB", "group": "cosmos-2251-debris", "lat": 58.71320428347389, "lon": -48.57166497761194, "alt_km": 657.7783606418598, "timestamp": "2025-12-03T22:42:33.030828+00:00", "meta": {"OBJECT_NAME": "COSMOS 2251 DEB", "OBJECT_ID": "1993-036BVZ", "EPOCH": "2025-12-02T06:27:45.283968", "MEAN_MOTION": 14.81470556, "ECCENTRICITY": 0.005597, "INCLINATION": 74.0116, "RA_OF_ASC_NODE": 162.895, "ARG_OF_PERICENTER": 301.3277, "MEAN_ANOMALY": 235.9171, "EPHEMERIS_TYPE": 0, "CLASSIFICATION_TYPE": "U", "NORAD_CAT_ID": 40796, "ELEMENT_SET_NO": 999, "REV_AT_EPOCH": 76003, "BSTAR": 0.00090141, "MEAN_MOTION_DOT": 7.227e-05, "MEAN_MOTION_DDOT": 0}, "tle": {"line1": "1 40796U 93036BVZ 25336.26927412  .00007227  00000+0  90141-3 0  9994", "line2": "2 40796  74.0116 162.8950 0055970 301.3277 235.9171 14.81470556760032"}}, "geometry": {"type": "Point", "coordinates": [-48.57166497761194, 58.71320428347389]}}, {"type": "Feature", "properties": {"norad_id": 40797, "name": "COSMOS 2251 DEB", "group": "cosmos-2251-debris", "lat": -29.03990655781916, "lon": 104.40532157087495, "alt_km": 513.2244075973194, "timestamp": "2025-12-03T22:42:33.030837+00:00", "meta": {"OBJECT_NAME": "COSMOS 2251 DEB", "OBJECT_ID": "1993-036BWA", "EPOCH": "2025-11-19T18:43:16.602528", "MEAN_MOTION": 15.10509474, "ECCENTRICITY": 0.00703947, "INCLINATION": 73.92, "RA_OF_ASC_NODE": 143.0892, "ARG_OF_PERICENTER": 60.6639, "MEAN_ANOMALY": 300.156, "EPHEMERIS_TYPE": 0, "CLASSIFICATION_TYPE": "U", "NORAD_CAT_ID": 40797, "ELEMENT_SET_NO": 999, "REV_AT_EPOCH": 64297, "BSTAR": 0.00072810385, "MEAN_MOTION_DOT": 0.00012707, "MEAN_MOTION_DDOT": 0}, "tle": {"line1": "1 40797U 93036BWA 25323.78005327  .00012707  00000+0  72810-3 0  9992", "line2": "2 40797  73.9200 143.0892 0070394  60.6639 300.1560 15.10509474642979"}}, "geometry": {"type": "Point", "coordinates": [104.40532157087495, -29.03990655781916]}}, {"type": "Feature", "properties": {"norad_id": 40799, "name": "COSMOS 2251 DEB", "group": "cosmos-2251-debris", "lat": 70.98842623076494, "lon": 173.08485569938878, "alt_km": 554.4694263319889, "timestamp": "2025-12-03T22:42:33.030846+00:00", "meta": {"OBJECT_NAME": "COSMOS 2251 DEB", "OBJECT_ID": "1993-036BWC", "EPOCH": "2025-12-02T15:52:37.657344", "MEAN_MOTION": 14.9651882, "ECCENTRICITY": 0.01185553, "INCLINATION": 73.9243, "RA_OF_ASC_NODE": 118.8799, "ARG_OF_PERICENTER": 3.136, "MEAN_ANOMALY": 357.0539, "EPHEMERIS_TYPE": 0, "CLASSIFICATION_TYPE": "U", "NORAD_CAT_ID": 40799, "ELEMENT_SET_NO": 999, "REV_AT_EPOCH": 49826, "BSTAR": 0.00041064949, "MEAN_MOTION_DOT": 5.344e-05, "MEAN_MOTION_DDOT": 0}, "tle": {"line1": "1 40799U 93036BWC 25336.66154696  .00005344  00000+0  41065-3 0  9996", "line2": "2 40799  73.9243 118.8799 0118555   3.1360 357.0539 14.96518820498265"}}, "geometry": {"type": "Point", "coordinates": [173.08485569938878, 70.98842623076494]}}, {"type": "Feature", "properties": {"norad_id": 40802, "name": "COSMOS 2251 DEB", "group": "cosmos-2251-debris", "lat": 8.40846689723753, "lon": 172.68800886454025, "alt_km": 644.9138357001666, "timestamp": "2025-12-03T22:42:33.030865+00:00", "meta": {"OBJECT_NAME": "COSMOS 2251 DEB", "OBJECT_ID": "1993-036BWF", "EPOCH": "2025-12-02T06:02:32.408736", "MEAN_MOTION": 14.77446019, "ECCENTRICITY": 0.0063431, "INCLINATION": 74.0395, "RA_OF_ASC_NODE": 173.5857, "ARG_OF_PERICENTER": 274.4204, "MEAN_ANOMALY": 84.9726, "EPHEMERIS_TYPE": 0, "CLASSIFICATION_TYPE": "U", "NORAD_CAT_ID": 40802, "ELEMENT_SET_NO": 999, "REV_AT_EPOCH": 64254, "BSTAR": 0.00074894, "MEAN_MOTION_DOT": 5.484e-05, "MEAN_MOTION_DDOT": 0}, "tle": {"line1": "1 40802U 93036BWF 25336.25176399  .00005484  00000+0  74894-3 0  9991", "line2": "2 40802  74.0395 173.5857 0063431 274.4204  84.9726 14.77446019642540"}}, "geometry": {"type": "Point", "coordinates": [172.68800886454025, 8.40846689723753]}}, {"type": "Feature", "properties": {"norad_id": 40803, "name": "COSMOS 2251 DEB", "group": "cosmos-2251-debris", "lat": -52.686832394286895, "lon": 46.38977063716416, "alt_km": 703.2601530920956, "timestamp": "2025-12-03T22:42:33.030874+00:00", "meta": {"OBJECT_NAME": "COSMOS 2251 DEB", "OBJECT_ID": "1993-036BWG", "EPOCH": "2025-11-28T13:57:57.324672", "MEAN_MOTION": 14.51758448, "ECCENTRICITY": 0.00344541, "INCLINATION": 74.0129, "RA_OF_ASC_NODE": 78.5975, "ARG_OF_PERICENTER": 297.2945, "MEAN_ANOMALY": 62.4709, "EPHEMERIS_TYPE": 0, "CLASSIFICATION_TYPE": "U", "NORAD_CAT_ID": 40803, "ELEMENT_SET_NO": 999, "REV_AT_EPOCH": 58547, "BSTAR": 0.00037309243, "MEAN_MOTION_DOT": 1.482e-05, "MEAN_MOTION_DDOT": 0}, "tle": {"line1": "1 40803U 93036BWG 25332.58191348  .00001482  00000+0  37309-3 0  9999", "line2": "2 40803  74.0129  78.5975 0034454 297.2945  62.4709 14.51758448585473"}}, "geometry": {"type": "Point", "coordinates": [46.38977063716416, -52.686832394286895]}}, {"type": "Feature", "properties": {"norad_id": 40808, "name": "COSMOS 2251 DEB", "group": "cosmos-2251-debris", "lat": 73.76792683816235, "lon": -118.18551665805616, "alt_km": 665.341657882962, "timestamp": "2025-12-03T22:42:33.030883+00:00", "meta": {"OBJECT_NAME": "COSMOS 2251 DEB", "OBJECT_ID": "1993-036BWM", "EPOCH": "2025-11-30T20:57:20.178144", "MEAN_MOTION": 14.67148693, "ECCENTRICITY": 0.00103903, "INCLINATION": 74.0423, "RA_OF_ASC_NODE": 168.372, "ARG_OF_PERICENTER": 205.6153, "MEAN_ANOMALY": 216.876, "EPHEMERIS_TYPE": 0, "CLASSIFICATION_TYPE": "U", "NORAD_CAT_ID": 40808, "ELEMENT_SET_NO": 999, "REV_AT_EPOCH": 63445, "BSTAR": 0.0014135109, "MEAN_MOTION_DOT": 7.933e-05, "MEAN_MOTION_DDOT": 0}, "tle": {"line1": "1 40808U 93036BWM 25334.87315021  .00007933  00000+0  14135-2 0  9992", "line2": "2 40808  74.0423 168.3720 0010390 205.6153 216.8760 14.67148693634455"}}, "geometry": {"type": "Point", "coordinates": [-118.18551665805616, 73.76792683816235]}}, {"type": "Feature", "properties": {"norad_id": 40810, "name": "COSMOS 2251 DEB", "group": "cosmos-2251-debris", "lat": -71.53558865472206, "lon": 32.46349436500707, "alt_km": 693.9144445550428, "timestamp": "2025-12-03T22:42:33.030892+00:00", "meta": {"OBJECT_NAME": "COSMOS 2251 DEB", "OBJECT_ID": "1993-036BWP", "EPOCH": "2025-12-02T07:34:18.151104", "MEAN_MOTION": 14.58589191, "ECCENTRICITY": 0.00187807, "INCLINATION": 74.0355, "RA_OF_ASC_NODE": 94.5842, "ARG_OF_PERICENTER": 246.5096, "MEAN_ANOMALY": 113.4096, "EPHEMERIS_TYPE": 0, "CLASSIFICATION_TYPE": "U", "NORAD_CAT_ID": 40810, "ELEMENT_SET_NO": 999, "REV_AT_EPOCH": 61531, "BSTAR": 0.001131408, "MEAN_MOTION_DOT": 5.252e-05, "MEAN_MOTION_DDOT": 0}, "tle": {"line1": "1 40810U 93036BWP 25336.31548786  .00005252  00000+0  11314-2 0  9990", "line2": "2 40810  74.0355  94.5842 0018780 246.5096 113.4096 14.58589191615318"}}, "geometry": {"type": "Point", "coordinates": [32.46349436500707, -71.53558865472206]}}]}